CELESTIS-02             
1 25160U 98007D   15354.58947231 -.00000008  00000-0  54338-4 0  9991
2 25160 107.9502 179.7127 0063912 215.7154 185.4554 14.21404016926170
CELESTIS-03             
1 26034U 99070C   15354.84619015  .00010268  00000-0  77117-3 0  9995
2 26034  98.2832 136.2054 0014930 173.6015 186.5402 15.02734132863573
